stk.v.11.0
# WrittenBy COMET v0.1.1
BEGIN Ephemeris
NumberOfEphemerisPoints 2436
ScenarioEpoch 31 Dec 1949 23:59:32.000000000
CentralBody Sun
CoordinateSystem ICRF
EphemerisTimePosVel
+2.02694396174538e9 -2.90267653579074e11 +6.64194165044427e11 +2.91759018469570e11 -1.22993141801999e4 -4.00759257372075e3 -1.41840575120166e3
+2.02823996174537e9 -3.06138275034100e11 +6.58847071801610e11 +2.89853475993631e11 -1.21905015428285e4 -4.24383131588751e3 -1.52215446444206e3
+2.02953596174547e9 -3.21866237686001e11 +6.53192935831962e11 +2.87812854015598e11 -1.20787696644798e4 -4.48016563269614e3 -1.62625214772031e3
+2.03083196174566e9 -3.37444594021508e11 +6.47235245043174e11 +2.85638477509309e11 -1.19594942035237e4 -4.71210328030553e3 -1.72848117849325e3
+2.03212796174595e9 -3.52866671088167e11 +6.40977817791718e11 +2.83331822048709e11 -1.18374963445982e4 -4.94289621057084e3 -1.83046852634622e3
+2.03342396174629e9 -3.68125734098773e11 +6.34424386650738e11 +2.80894325028643e11 -1.17082314906017e4 -5.16900775251696e3 -1.93044719220643e3
+2.03471996174669e9 -3.83215360573070e11 +6.27578986338267e11 +2.78327562514937e11 -1.15775422488683e4 -5.39355457989642e3 -2.03000990421913e3
+2.03601596174710e9 -3.98129093890958e11 +6.20445442903254e11 +2.75633010145224e11 -1.14385447089798e4 -5.61468293588614e3 -2.12816283119278e3
+2.03731196174751e9 -4.12860639468302e11 +6.13027966434187e11 +2.72812323244468e11 -1.12969914366276e4 -5.83283502703824e3 -2.22521022138805e3
+2.03860796174788e9 -4.27403779052743e11 +6.05330639697373e11 +2.69867093657940e11 -1.11469890659769e4 -6.04691967957224e3 -2.32052782427477e3
+2.03990396174820e9 -4.41752458812873e11 +5.97357969842215e11 +2.66799111481413e11 -1.09958213142661e4 -6.25684882302247e3 -2.41419652926282e3
+2.04119996174844e9 -4.55900818334942e11 +5.89114272762309e11 +2.63610074448752e11 -1.08371780348009e4 -6.46437611064637e3 -2.50695085969481e3
+2.04249596174859e9 -4.69843006425439e11 +5.80604218109048e11 +2.60301849626961e11 -1.06768025467108e4 -6.66752403920946e3 -2.59794303746303e3
+2.04379196174863e9 -4.83573382389054e11 +5.71832335237475e11 +2.56876234830701e11 -1.05092412077122e4 -6.86829100595094e3 -2.68802631694586e3
+2.04508796174856e9 -4.97086301308724e11 +5.62803496825193e11 +2.53335193448870e11 -1.03407652123968e4 -7.06338629166561e3 -2.77573457041551e3
+2.04638396174839e9 -5.10376455377752e11 +5.53522381661922e11 +2.49680590685201e11 -1.01667002142787e4 -7.25730570728370e3 -2.86314094891051e3
+2.04767996174813e9 -5.23438401821176e11 +5.43993901190591e11 +2.45914405739583e11 -9.99047196730477e3 -7.44574656563372e3 -2.94825348695009e3
+2.04897596174778e9 -5.36267048455667e11 +5.34222879172404e11 +2.42038574523890e11 -9.80797993804313e3 -7.63286868810392e3 -3.03297963875250e3
+2.05027196174738e9 -5.48857177996648e11 +5.24214384072230e11 +2.38055154334530e11 -9.62245592698937e3 -7.81276738837381e3 -3.11455171595894e3
+2.05156796174695e9 -5.61204050281817e11 +5.13973462647551e11 +2.33966185861856e11 -9.43252632381097e3 -7.99128268750165e3 -3.19573232624415e3
+2.05286396174653e9 -5.73302766524069e11 +5.03505268795046e11 +2.29773764626517e11 -9.23916333081279e3 -8.16319385490444e3 -3.27405400298686e3
+2.05415996174614e9 -5.85148810824714e11 +4.92814989170374e11 +2.25479994768288e11 -9.04167631862706e3 -8.33408678575517e3 -3.35216608398306e3
+2.05545596174580e9 -5.96737442836041e11 +4.81907930736742e11 +2.21087043385385e11 -8.84000283023863e3 -8.49752781717200e3 -3.42698975420265e3
+2.05675196174555e9 -6.08064401330844e11 +4.70789537313470e11 +2.16597138973525e11 -8.63663750514222e3 -8.65927546821600e3 -3.50130871383681e3
+2.05804796174540e9 -6.19125277557853e11 +4.59465183498346e11 +2.12012481146049e11 -8.42961505955693e3 -8.81459977237791e3 -3.57284186884255e3
+2.05934396174535e9 -6.29916040162001e11 +4.47940363674537e11 +2.07335321935243e11 -8.22128546233398e3 -8.96881910741432e3 -3.64416539266908e3
+2.06063996174541e9 -6.40432473083344e11 +4.36220470455722e11 +2.02567870384447e11 -8.00742032723170e3 -9.11656045384437e3 -3.71264152217468e3
+2.06193596174558e9 -6.50670732418814e11 +4.24311160896402e11 +1.97712456687466e11 -7.79286823912370e3 -9.26149287545411e3 -3.78009491547122e3
+2.06323196174584e9 -6.60626949063088e11 +4.12217954766815e11 +1.92771350035477e11 -7.57302063514965e3 -9.40031321565217e3 -3.84487432947781e3
+2.06452796174617e9 -6.70297602663188e11 +3.99946625857117e11 +1.87746940066935e11 -7.35297289991274e3 -9.53645398997406e3 -3.90870277483034e3
+2.06582396174655e9 -6.79679131028561e11 +3.87502743760745e11 +1.82641523533739e11 -7.12631339504002e3 -9.66726250547285e3 -3.97020249731026e3
+2.06711996074697e9 -6.88768199477380e11 +3.74892238136998e11 +1.77457569326365e11 -6.89978418160566e3 -9.79362725622653e3 -4.02989803090830e3
+2.06841596074738e9 -6.97561579454640e11 +3.62120820827218e11 +1.72197444592556e11 -6.66812309802247e3 -9.91486975593090e3 -4.08737628547728e3
+2.06971196074777e9 -7.06056205839993e11 +3.49194479181091e11 +1.66863646404180e11 -6.43814105456129e3 -1.00317364738072e4 -4.14311171699625e3
+2.07100796074811e9 -7.14249121480590e11 +3.36118914784828e11 +1.61458538460132e11 -6.20292864343900e3 -1.01451871250219e4 -4.19744375738309e3
+2.07230396074838e9 -7.22137398818952e11 +3.22900126810643e11 +1.55984631146956e11 -5.96850224912978e3 -1.02531076813459e4 -4.24945673934345e3
+2.07359996074856e9 -7.29718344061780e11 +3.09543885695374e11 +1.50444325740526e11 -5.72943017774240e3 -1.03573920479629e4 -4.29995740989026e3
+2.07489596074864e9 -7.36989294334811e11 +2.96056218298591e11 +1.44840148394916e11 -5.49158334740679e3 -1.04555444445830e4 -4.34785820665792e3
+2.07619196074861e9 -7.43947884622910e11 +2.82442896701066e11 +1.39174501127275e11 -5.24918847382495e3 -1.05516042141784e4 -4.39499200398925e3
+2.07748796074847e9 -7.50591602720528e11 +2.68709943947184e11 +1.33449909127298e11 -5.00608056617919e3 -1.06409455345262e4 -4.43921236141494e3
+2.07878396074823e9 -7.56918289463815e11 +2.54863311626376e11 +1.27668863424159e11 -4.75881393993538e3 -1.07275360705157e4 -4.48233936529097e3
+2.08007996074791e9 -7.62925702463734e11 +2.40909170800375e11 +1.21833966223018e11 -4.51158217057100e3 -1.08063669404292e4 -4.52205437807901e3
+2.08137596074752e9 -7.68612036428939e11 +2.26853574063444e11 +1.15947759699111e11 -4.26235380137432e3 -1.08835397377439e4 -4.56123327652156e3
+2.08267196074710e9 -7.73975282320231e11 +2.12702646296961e11 +1.10012828019704e11 -4.01230446841107e3 -1.09535083870449e4 -4.59725066789509e3
+2.08396796074667e9 -7.79013823676408e11 +1.98462484106395e11 +1.04031739636407e11 -3.76076386687076e3 -1.10214818582298e4 -4.63256739079907e3
+2.08526396074626e9 -7.83725861582834e11 +1.84139231248481e11 +9.80070920749416e10 -3.50833067926954e3 -1.10813741066417e4 -4.66428920829511e3
+2.08655996074590e9 -7.88110097588532e11 +1.69739050748880e11 +9.19414909360858e10 -3.25637558225785e3 -1.11395126429606e4 -4.69545377637024e3
+2.08785596074562e9 -7.92165068384063e11 +1.55267983388850e11 +8.58374918443439e10 -3.00231277255485e3 -1.11908068290125e4 -4.72359590034903e3
+2.08915196074543e9 -7.95889691122185e11 +1.40732167625568e11 +7.96976955138652e10 -2.74802472696275e3 -1.12401280657113e4 -4.75105763633487e3
+2.09044796074535e9 -7.99282726758472e11 +1.26137660171593e11 +7.35246714993110e10 -2.49036304661134e3 -1.12819163020416e4 -4.77512962846631e3
+2.09174396074537e9 -8.02343349644941e11 +1.11490715842926e11 +6.73210804120658e10 -2.23426239357483e3 -1.13207727152257e4 -4.79808420227691e3
+2.09303996074551e9 -8.05070630317122e11 +9.67973888579185e10 +6.10894915674896e10 -1.97512646538593e3 -1.13533759845723e4 -4.81826669316969e3
+2.09433596074574e9 -8.07463924934316e11 +8.20639522850411e10 +5.48325802914855e10 -1.71787832619165e3 -1.13830159863232e4 -4.83731730460516e3
+2.09563196074605e9 -8.09522509967632e11 +6.72964558592565e10 +4.85529221346875e10 -1.45701322424658e3 -1.14064116628740e4 -4.85357331663216e3
+2.09692796074642e9 -8.11245922746463e11 +5.25012306272631e10 +4.22532270135275e10 -1.19958713984628e3 -1.14252922184725e4 -4.86796847622429e3
+2.09822396074683e9 -8.12633778178905e11 +3.76842946887566e10 +3.59360589187695e10 -9.39747168850902e2 -1.14391460926529e4 -4.88016890935229e3
+2.09951996074725e9 -8.13685839932075e11 +2.28518743287173e10 +2.96040815225646e10 -6.83253661661631e2 -1.14488440488010e4 -4.89068500717346e3
+2.10081596074766e9 -8.14401936333878e11 +8.00991313616861e9 +2.32598272603513e10 -4.22927939912135e2 -1.14543527815053e4 -4.89937408335353e3
+2.10211196074801e9 -8.14781997185092e11 -6.83531718910496e9 +1.69059915989026e10 -1.65337107014795e2 -1.14539708449908e4 -4.90552124103538e3
+2.10340796074831e9 -8.14826213033668e11 -2.16778052035611e10 +1.05451480148584e10 +9.50281337510346e1 -1.14498689262419e4 -4.91007097731396e3
+2.10470396074853e9 -8.14534798156167e11 -3.65113096097365e10 +4.17998439108384e9 +3.52492153717533e2 -1.14400268235855e4 -4.91215364676350e3
+2.10599996074864e9 -8.13908205056624e11 -5.13298566885494e10 -2.18693697008520e9 +6.12904347593236e2 -1.14276303107856e4 -4.91318479491394e3
+2.10729596074864e9 -8.12946762522289e11 -6.61272336280692e10 -8.55293345453812e9 +8.71168979030466e2 -1.14080412763490e4 -4.91102690276275e3
+2.10859196074854e9 -8.11651151913279e11 -8.08973934571572e10 -1.49154013839769e10 +1.13037927036651e3 -1.13855154692827e4 -4.90765099564849e3
+2.10988796074833e9 -8.10021974487896e11 -9.56341707726933e10 -2.12716719137887e10 +1.38643708153503e3 -1.13557966977240e4 -4.90109859292001e3
+2.11118396074804e9 -8.08060208450615e11 -1.10331628083754e11 -2.76191857417387e10 +1.64260828562157e3 -1.13246133434092e4 -4.89404461411820e3
+2.11247996074766e9 -8.05766608682659e11 -1.24983767988204e11 -3.39553462611559e10 +1.89749601987884e3 -1.12859948614329e4 -4.88365837666818e3
+2.11377596074725e9 -8.03142349975389e11 -1.39584656252988e11 -4.02775884570546e10 +2.15192764040551e3 -1.12452616957054e4 -4.87245402171195e3
END Ephemeris